ONEWEB-0168             
1 48068U 21025AC  24112.53225318  .00000374  00000+0  98862-3 0  9994
2 48068  87.8890 116.7955 0002057  89.3695 270.7670 13.13469689150292
ONEWEB-0173             
1 48069U 21025AD  24112.52430598  .00000251  00000+0  65123-3 0  9990
2 48069  87.8892 116.8072 0002366  99.7994 260.3402 13.13469660150530
ONEWEB-0171             
1 48070U 21025AE  24112.48462392  .00000036  00000+0  63884-4 0  9998
2 48070  87.8891 116.8500 0002010  93.8068 266.3291 13.13468289150347
ONEWEB-0172             
1 48071U 21025AF  24112.46399725  .00000436  00000+0  11582-2 0  9996
2 48071  87.8893 116.8211 0002079  95.8718 264.2648 13.13468553151234
ONEWEB-0174             
1 48072U 21025AG  24112.52271375  .00000214  00000+0  55048-3 0  9994
2 48072  87.8891 116.8235 0002083  85.5716 274.5651 13.13471133150569
ONEWEB-0175             
1 48073U 21025AH  24112.47510226  .00000227  00000+0  58669-3 0  9996
2 48073  87.8885 116.8249 0001780 100.1114 260.0216 13.13467804150216
ONEWEB-0177             
1 48074U 21025AJ  24112.56397374 -.00000135  00000+0 -40376-3 0  9990
2 48074  87.8889 116.8142 0002425  89.6256 270.5151 13.13467746150419
ONEWEB-0178             
1 48075U 21025AK  24112.50538920 -.00000186  00000+0 -54324-3 0  9993
2 48075  87.8894 116.8398 0002248  94.6605 265.4781 13.13468780150451
